{
  "type": "FeatureCollection",
  "features": [
    {
      "type": "Feature",
      "properties": {
        "norad_id": 66468,
        "name": "STARLINK-35331",
        "group": "last-30-days",
        "lat": 26.38996920725113,
        "lon": -138.51839193641428,
        "alt_km": 441.07862441493126,
        "timestamp": "2025-12-12T07:43:19.256855+00:00",
        "meta_object_name": "STARLINK-35331",
        "meta_object_id": "2025-262N",
        "meta_epoch": "2025-12-11T22:00:01.999584",
        "meta_mean_motion": 15.40670845,
        "meta_eccentricity": 0.00019608,
        "meta_inclination": 43.0008,
        "meta_ra_of_asc_node": 75.9879,
        "meta_arg_of_pericenter": 291.0645,
        "meta_mean_anomaly": 118.871,
        "meta_ephemeris_type": 0,
        "meta_classification_type": "U",
        "meta_norad_cat_id": 66468,
        "meta_element_set_no": 999,
        "meta_rev_at_epoch": 550,
        "meta_bstar": 0.00069301387,
        "meta_mean_motion_dot": 0.00028727,
        "meta_mean_motion_ddot": 0,
        "tle_line1": "1 66468U 25262N   25345.91668981  .00028727  00000+0  69301-3 0  9991",
        "tle_line2": "2 66468  43.0008  75.9879 0001960 291.0645 118.8710 15.40670845  5501"
      },
      "geometry": {
        "type": "Point",
        "coordinates": [
          -138.51839193641428,
          26.38996920725113
        ]
      }
    },
    {
      "type": "Feature",
      "properties": {
        "norad_id": 66469,
        "name": "STARLINK-35451",
        "group": "last-30-days",
        "lat": -11.896453011210768,
        "lon": -93.42688585575297,
        "alt_km": 419.2006870608384,
        "timestamp": "2025-12-12T07:43:19.256868+00:00",
        "meta_object_name": "STARLINK-35451",
        "meta_object_id": "2025-262P",
        "meta_epoch": "2025-12-10T16:12:32.558112",
        "meta_mean_motion": 15.50219904,
        "meta_eccentricity": 4.921e-05,
        "meta_inclination": 43.0005,
        "meta_ra_of_asc_node": 83.1302,
        "meta_arg_of_pericenter": 334.6757,
        "meta_mean_anomaly": 25.4079,
        "meta_ephemeris_type": 0,
        "meta_classification_type": "U",
        "meta_norad_cat_id": 66469,
        "meta_element_set_no": 999,
        "meta_rev_at_epoch": 524,
        "meta_bstar": -0.0029160526,
        "meta_mean_motion_dot": -0.00165698,
        "meta_mean_motion_ddot": 0,
        "tle_line1": "1 66469U 25262P   25344.67537683 -.00165698  00000+0 -29161-2 0  9998",
        "tle_line2": "2 66469  43.0005  83.1302 0000492 334.6757  25.4079 15.50219904  5246"
      },
      "geometry": {
        "type": "Point",
        "coordinates": [
          -93.42688585575297,
          -11.896453011210768
        ]
      }
    },
    {
      "type": "Feature",
      "properties": {
        "norad_id": 66470,
        "name": "STARLINK-35655",
        "group": "last-30-days",
        "lat": 18.79161778024891,
        "lon": -127.79314773770975,
        "alt_km": 442.07095458880485,
        "timestamp": "2025-12-12T07:43:19.256880+00:00",
        "meta_object_name": "STARLINK-35655",
        "meta_object_id": "2025-262Q",
        "meta_epoch": "2025-12-11T22:00:01.999584",
        "meta_mean_motion": 15.41158414,
        "meta_eccentricity": 0.00018184,
        "meta_inclination": 43.0008,
        "meta_ra_of_asc_node": 75.9581,
        "meta_arg_of_pericenter": 260.5686,
        "meta_mean_anomaly": 161.6399,
        "meta_ephemeris_type": 0,
        "meta_classification_type": "U",
        "meta_norad_cat_id": 66470,
        "meta_element_set_no": 999,
        "meta_rev_at_epoch": 550,
        "meta_bstar": -0.019108526,
        "meta_mean_motion_dot": -0.00746805,
        "meta_mean_motion_ddot": 0,
        "tle_line1": "1 66470U 25262Q   25345.91668981 -.00746805  00000+0 -19109-1 0  9999",
        "tle_line2": "2 66470  43.0008  75.9581 0001818 260.5686 161.6399 15.41158414  5505"
      },
      "geometry": {
        "type": "Point",
        "coordinates": [
          -127.79314773770975,
          18.79161778024891
        ]
      }
    },
    {
      "type": "Feature",
      "properties": {
        "norad_id": 66471,
        "name": "STARLINK-35569",
        "group": "last-30-days",
        "lat": 10.67994732969892,
        "lon": -118.08321920614385,
        "alt_km": 441.814719613375,
        "timestamp": "2025-12-12T07:43:19.256891+00:00",
        "meta_object_name": "STARLINK-35569",
        "meta_object_id": "2025-262R",
        "meta_epoch": "2025-12-11T22:00:01.999584",
        "meta_mean_motion": 15.43188774,
        "meta_eccentricity": 0.00012342,
        "meta_inclination": 43.0004,
        "meta_ra_of_asc_node": 75.9326,
        "meta_arg_of_pericenter": 299.9093,
        "meta_mean_anomaly": 132.7903,
        "meta_ephemeris_type": 0,
        "meta_classification_type": "U",
        "meta_norad_cat_id": 66471,
        "meta_element_set_no": 999,
        "meta_rev_at_epoch": 550,
        "meta_bstar": -0.058366253,
        "meta_mean_motion_dot": -0.0236069,
        "meta_mean_motion_ddot": 0,
        "tle_line1": "1 66471U 25262R   25345.91668981 -.02360690  00000+0 -58366-1 0  9994",
        "tle_line2": "2 66471  43.0004  75.9326 0001234 299.9093 132.7903 15.43188774  5503"
      },
      "geometry": {
        "type": "Point",
        "coordinates": [
          -118.08321920614385,
          10.67994732969892
        ]
      }
    },
    {
      "type": "Feature",
      "properties": {
        "norad_id": 66472,
        "name": "STARLINK-35567",
        "group": "last-30-days",
        "lat": -3.587666818910218,
        "lon": -102.60078684290092,
        "alt_km": 435.1580092110935,
        "timestamp": "2025-12-12T07:43:19.256902+00:00",
        "meta_object_name": "STARLINK-35567",
        "meta_object_id": "2025-262S",
        "meta_epoch": "2025-12-11T22:00:01.999584",
        "meta_mean_motion": 15.45675845,
        "meta_eccentricity": 0.00012868,
        "meta_inclination": 43.0009,
        "meta_ra_of_asc_node": 75.8903,
        "meta_arg_of_pericenter": 281.4917,
        "meta_mean_anomaly": 168.4517,
        "meta_ephemeris_type": 0,
        "meta_classification_type": "U",
        "meta_norad_cat_id": 66472,
        "meta_element_set_no": 999,
        "meta_rev_at_epoch": 550,
        "meta_bstar": -0.047882051,
        "meta_mean_motion_dot": -0.02097916,
        "meta_mean_motion_ddot": 0,
        "tle_line1": "1 66472U 25262S   25345.91668981 -.02097916  00000+0 -47882-1 0  9994",
        "tle_line2": "2 66472  43.0009  75.8903 0001286 281.4917 168.4517 15.45675845  5506"
      },
      "geometry": {
        "type": "Point",
        "coordinates": [
          -102.60078684290092,
          -3.587666818910218
        ]
      }
    },
    {
      "type": "Feature",
      "properties": {
        "norad_id": 66473,
        "name": "STARLINK-35568",
        "group": "last-30-days",
        "lat": -17.209302654424768,
        "lon": -87.09800781376157,
        "alt_km": 413.691414125813,
        "timestamp": "2025-12-12T07:43:19.256918+00:00",
        "meta_object_name": "STARLINK-35568",
        "meta_object_id": "2025-262T",
        "meta_epoch": "2025-12-11T07:39:08.069760",
        "meta_mean_motion": 15.50526439,
        "meta_eccentricity": 0.00047596,
        "meta_inclination": 42.9998,
        "meta_ra_of_asc_node": 79.3576,
        "meta_arg_of_pericenter": 252.6139,
        "meta_mean_anomaly": 107.4201,
        "meta_ephemeris_type": 0,
        "meta_classification_type": "U",
        "meta_norad_cat_id": 66473,
        "meta_element_set_no": 999,
        "meta_rev_at_epoch": 534,
        "meta_bstar": 0.0038259112,
        "meta_mean_motion_dot": 0.00230458,
        "meta_mean_motion_ddot": 0,
        "tle_line1": "1 66473U 25262T   25345.31884340  .00230458  00000+0  38259-2 0  9993",
        "tle_line2": "2 66473  42.9998  79.3576 0004759 252.6139 107.4201 15.50526439  5346"
      },
      "geometry": {
        "type": "Point",
        "coordinates": [
          -87.09800781376157,
          -17.209302654424768
        ]
      }
    },
    {
      "type": "Feature",
      "properties": {
        "norad_id": 66474,
        "name": "STARLINK-35620",
        "group": "last-30-days",
        "lat": -19.054434918771324,
        "lon": -84.76424610364104,
        "alt_km": 414.86207936025767,
        "timestamp": "2025-12-12T07:43:19.256930+00:00",
        "meta_object_name": "STARLINK-35620",
        "meta_object_id": "2025-262U",
        "meta_epoch": "2025-12-11T07:38:34.341792",
        "meta_mean_motion": 15.50718811,
        "meta_eccentricity": 0.00019374,
        "meta_inclination": 43.0007,
        "meta_ra_of_asc_node": 79.3535,
        "meta_arg_of_pericenter": 275.2448,
        "meta_mean_anomaly": 84.8191,
        "meta_ephemeris_type": 0,
        "meta_classification_type": "U",
        "meta_norad_cat_id": 66474,
        "meta_element_set_no": 999,
        "meta_rev_at_epoch": 534,
        "meta_bstar": 0.0036220445,
        "meta_mean_motion_dot": 0.00219297,
        "meta_mean_motion_ddot": 0,
        "tle_line1": "1 66474U 25262U   25345.31845303  .00219297  00000+0  36220-2 0  9994",
        "tle_line2": "2 66474  43.0007  79.3535 0001937 275.2448  84.8191 15.50718811  5347"
      },
      "geometry": {
        "type": "Point",
        "coordinates": [
          -84.76424610364104,
          -19.054434918771324
        ]
      }
    }
  ]
}